CTC1_L_00621001-01
1 10000U 22641ZX  26075.70039352  .00000000  00000+0  00000-0 0  9994
2 10000  65.0000   0.0000 0000000   0.0000   0.0000  4.55247085    15
CTC1_L_00621001-02
1 10001U 25671KB  26075.70039352  .00000000  00000+0  00000-0 0  9991
2 10001  65.0000   0.0000 0000000   0.0000  36.0000  4.55247085    15
CTC1_L_00621001-03
1 10002U 23288VE  26075.70039352  .00000000  00000+0  00000-0 0  9994
2 10002  65.0000   0.0000 0000000   0.0000  72.0000  4.55247085    16
CTC1_L_00621001-04
1 10003U 23308YH  26075.70039352  .00000000  00000+0  00000-0 0  9998
2 10003  65.0000   0.0000 0000000   0.0000 108.0000  4.55247085    17
CTC1_L_00621001-05
1 10004U 22383FT  26075.70039352  .00000000  00000+0  00000-0 0  9991
2 10004  65.0000   0.0000 0000000   0.0000 144.0000  4.55247085    18
CTC1_L_00621001-06
1 10005U 22496XW  26075.70039352  .00000000  00000+0  00000-0 0  9997
2 10005  65.0000   0.0000 0000000   0.0000 180.0000  4.55247085    19
CTC1_L_00621001-07
1 10006U 25844SB  26075.70039352  .00000000  00000+0  00000-0 0  9998
2 10006  65.0000   0.0000 0000000   0.0000 216.0000  4.55247085    10
CTC1_L_00621001-08
1 10007U 24534PE  26075.70039352  .00000000  00000+0  00000-0 0  9994
2 10007  65.0000   0.0000 0000000   0.0000 252.0000  4.55247085    11
CTC1_L_00621001-09
1 10008U 22198MI  26075.70039352  .00000000  00000+0  00000-0 0  9999
2 10008  65.0000   0.0000 0000000   0.0000 288.0000  4.55247085    11
CTC1_L_00621001-10
1 10009U 22683XZ  26075.70039352  .00000000  00000+0  00000-0 0  9999
2 10009  65.0000   0.0000 0000000   0.0000 324.0000  4.55247085    13
CTC1_L_00621002-01
1 10010U 22607ZF  26075.70039352  .00000000  00000+0  00000-0 0  9997
2 10010  65.0000  30.0000 0000000   0.0000  12.0000  4.55247085    12
CTC1_L_00621002-02
1 10011U 23302ES  26075.70039352  .00000000  00000+0  00000-0 0  9991
2 10011  65.0000  30.0000 0000000   0.0000  48.0000  4.55247085    12
CTC1_L_00621002-03
1 10012U 26922FY  26075.70039352  .00000000  00000+0  00000-0 0  9993
2 10012  65.0000  30.0000 0000000   0.0000  84.0000  4.55247085    13
CTC1_L_00621002-04
1 10013U 23727FT  26075.70039352  .00000000  00000+0  00000-0 0  9994
2 10013  65.0000  30.0000 0000000   0.0000 120.0000  4.55247085    15
CTC1_L_00621002-05
1 10014U 25514LA  26075.70039352  .00000000  00000+0  00000-0 0  9991
2 10014  65.0000  30.0000 0000000   0.0000 156.0000  4.55247085    15
CTC1_L_00621002-06
1 10015U 26660MQ  26075.70039352  .00000000  00000+0  00000-0 0  9995
2 10015  65.0000  30.0000 0000000   0.0000 192.0000  4.55247085    16
CTC1_L_00621002-07
1 10016U 24646ZR  26075.70039352  .00000000  00000+0  00000-0 0  9998
2 10016  65.0000  30.0000 0000000   0.0000 228.0000  4.55247085    17
CTC1_L_00621002-08
1 10017U 22102CV  26075.70039352  .00000000  00000+0  00000-0 0  9994
2 10017  65.0000  30.0000 0000000   0.0000 264.0000  4.55247085    18
CTC1_L_00621002-09
1 10018U 22002LH  26075.70039352  .00000000  00000+0  00000-0 0  9994
2 10018  65.0000  30.0000 0000000   0.0000 300.0000  4.55247085    10
CTC1_L_00621002-10
1 10019U 24110K   26075.70039352  .00000000  00000+0  00000-0 0  9997
2 10019  65.0000  30.0000 0000000   0.0000 336.0000  4.55247085    10
CTC1_L_00621003-01
1 10020U 23737VD  26075.70039352  .00000000  00000+0  00000-0 0  9993
2 10020  65.0000  60.0000 0000000   0.0000  24.0000  4.55247085    19
CTC1_L_00621003-02
1 10021U 25100RE  26075.70039352  .00000000  00000+0  00000-0 0  9990
2 10021  65.0000  60.0000 0000000   0.0000  60.0000  4.55247085    10
CTC1_L_00621003-03
1 10022U 23912EP  26075.70039352  .00000000  00000+0  00000-0 0  9990
2 10022  65.0000  60.0000 0000000   0.0000  96.0000  4.55247085    10
CTC1_L_00621003-04
1 10023U 25742XG  26075.70039352  .00000000  00000+0  00000-0 0  9994
2 10023  65.0000  60.0000 0000000   0.0000 132.0000  4.55247085    12
CTC1_L_00621003-05
1 10024U 25163HM  26075.70039352  .00000000  00000+0  00000-0 0  9992
2 10024  65.0000  60.0000 0000000   0.0000 168.0000  4.55247085    12
CTC1_L_00621003-06
1 10025U 23458US  26075.70039352  .00000000  00000+0  00000-0 0  9998
2 10025  65.0000  60.0000 0000000   0.0000 204.0000  4.55247085    14
CTC1_L_00621003-07
1 10026U 25964WJ  26075.70039352  .00000000  00000+0  00000-0 0  9993
2 10026  65.0000  60.0000 0000000   0.0000 240.0000  4.55247085    15
CTC1_L_00621003-08
1 10027U 23501BH  26075.70039352  .00000000  00000+0  00000-0 0  9999
2 10027  65.0000  60.0000 0000000   0.0000 276.0000  4.55247085    15
CTC1_L_00621003-09
1 10028U 24069FS  26075.70039352  .00000000  00000+0  00000-0 0  9990
2 10028  65.0000  60.0000 0000000   0.0000 312.0000  4.55247085    17
CTC1_L_00621003-10
1 10029U 26056MO  26075.70039352  .00000000  00000+0  00000-0 0  9999
2 10029  65.0000  60.0000 0000000   0.0000 348.0000  4.55247085    17
CTC1_L_00621004-01
1 10030U 24354QO  26075.70039352  .00000000  00000+0  00000-0 0  9990
2 10030  65.0000  90.0000 0000000   0.0000  36.0000  4.55247085    16
CTC1_L_00621004-02
1 10031U 24239TP  26075.70039352  .00000000  00000+0  00000-0 0  9993
2 10031  65.0000  90.0000 0000000   0.0000  72.0000  4.55247085    17
CTC1_L_00621004-03
1 10032U 23647JY  26075.70039352  .00000000  00000+0  00000-0 0  9996
2 10032  65.0000  90.0000 0000000   0.0000 108.0000  4.55247085    18
CTC1_L_00621004-04
1 10033U 26213JI  26075.70039352  .00000000  00000+0  00000-0 0  9999
2 10033  65.0000  90.0000 0000000   0.0000 144.0000  4.55247085    19
CTC1_L_00621004-05
1 10034U 25998NP  26075.70039352  .00000000  00000+0  00000-0 0  9999
2 10034  65.0000  90.0000 0000000   0.0000 180.0000  4.55247085    10
CTC1_L_00621004-06
1 10035U 22566CR  26075.70039352  .00000000  00000+0  00000-0 0  9998
2 10035  65.0000  90.0000 0000000   0.0000 216.0000  4.55247085    11
CTC1_L_00621004-07
1 10036U 22224FF  26075.70039352  .00000000  00000+0  00000-0 0  9990
2 10036  65.0000  90.0000 0000000   0.0000 252.0000  4.55247085    12
CTC1_L_00621004-08
1 10037U 22144GD  26075.70039352  .00000000  00000+0  00000-0 0  9992
2 10037  65.0000  90.0000 0000000   0.0000 288.0000  4.55247085    12
CTC1_L_00621004-09
1 10038U 22361ZI  26075.70039352  .00000000  00000+0  00000-0 0  9994
2 10038  65.0000  90.0000 0000000   0.0000 324.0000  4.55247085    14
CTC1_L_00621004-10
1 10039U 23803XF  26075.70039352  .00000000  00000+0  00000-0 0  9997
2 10039  65.0000  90.0000 0000000   0.0000   0.0000  4.55247085    16
CTC1_L_00621005-01
1 10040U 22816YH  26075.70039352  .00000000  00000+0  00000-0 0  9992
2 10040  65.0000 120.0000 0000000   0.0000  48.0000  4.55247085    14
CTC1_L_00621005-02
1 10041U 25545NM  26075.70039352  .00000000  00000+0  00000-0 0  9995
2 10041  65.0000 120.0000 0000000   0.0000  84.0000  4.55247085    15
CTC1_L_00621005-03
1 10042U 26347XH  26075.70039352  .00000000  00000+0  00000-0 0  9997
2 10042  65.0000 120.0000 0000000   0.0000 120.0000  4.55247085    17
CTC1_L_00621005-04
1 10043U 22914FA  26075.70039352  .00000000  00000+0  00000-0 0  9994
2 10043  65.0000 120.0000 0000000   0.0000 156.0000  4.55247085    17
CTC1_L_00621005-05
1 10044U 23583QN  26075.70039352  .00000000  00000+0  00000-0 0  9998
2 10044  65.0000 120.0000 0000000   0.0000 192.0000  4.55247085    18
CTC1_L_00621005-06
1 10045U 24226ZG  26075.70039352  .00000000  00000+0  00000-0 0  9994
2 10045  65.0000 120.0000 0000000   0.0000 228.0000  4.55247085    19
CTC1_L_00621005-07
1 10046U 24973EC  26075.70039352  .00000000  00000+0  00000-0 0  9994
2 10046  65.0000 120.0000 0000000   0.0000 264.0000  4.55247085    10
CTC1_L_00621005-08
1 10047U 22309FN  26075.70039352  .00000000  00000+0  00000-0 0  9996
2 10047  65.0000 120.0000 0000000   0.0000 300.0000  4.55247085    12
CTC1_L_00621005-09
1 10048U 26792MS  26075.70039352  .00000000  00000+0  00000-0 0  9997
2 10048  65.0000 120.0000 0000000   0.0000 336.0000  4.55247085    12
CTC1_L_00621005-10
1 10049U 23776IB  26075.70039352  .00000000  00000+0  00000-0 0  9997
2 10049  65.0000 120.0000 0000000   0.0000  12.0000  4.55247085    14
CTC1_L_00621006-01
1 10050U 24920PL  26075.70039352  .00000000  00000+0  00000-0 0  9991
2 10050  65.0000 150.0000 0000000   0.0000  60.0000  4.55247085    12
CTC1_L_00621006-02
1 10051U 24958QU  26075.70039352  .00000000  00000+0  00000-0 0  9993
2 10051  65.0000 150.0000 0000000   0.0000  96.0000  4.55247085    12
CTC1_L_00621006-03
1 10052U 25870RG  26075.70039352  .00000000  00000+0  00000-0 0  9998
2 10052  65.0000 150.0000 0000000   0.0000 132.0000  4.55247085    14
CTC1_L_00621006-04
1 10053U 24098VN  26075.70039352  .00000000  00000+0  00000-0 0  9990
2 10053  65.0000 150.0000 0000000   0.0000 168.0000  4.55247085    14
CTC1_L_00621006-05
1 10054U 22739HX  26075.70039352  .00000000  00000+0  00000-0 0  9991
2 10054  65.0000 150.0000 0000000   0.0000 204.0000  4.55247085    16
CTC1_L_00621006-06
1 10055U 25936MQ  26075.70039352  .00000000  00000+0  00000-0 0  9994
2 10055  65.0000 150.0000 0000000   0.0000 240.0000  4.55247085    17
CTC1_L_00621006-07
1 10056U 25304HG  26075.70039352  .00000000  00000+0  00000-0 0  9994
2 10056  65.0000 150.0000 0000000   0.0000 276.0000  4.55247085    17
CTC1_L_00621006-08
1 10057U 26160QV  26075.70039352  .00000000  00000+0  00000-0 0  9996
2 10057  65.0000 150.0000 0000000   0.0000 312.0000  4.55247085    19
CTC1_L_00621006-09
1 10058U 24794EB  26075.70039352  .00000000  00000+0  00000-0 0  9998
2 10058  65.0000 150.0000 0000000   0.0000 348.0000  4.55247085    19
CTC1_L_00621006-10
1 10059U 26982NB  26075.70039352  .00000000  00000+0  00000-0 0  9990
2 10059  65.0000 150.0000 0000000   0.0000  24.0000  4.55247085    11
CTC1_L_00621007-01
1 10060U 22304TD  26075.70039352  .00000000  00000+0  00000-0 0  9996
2 10060  65.0000 180.0000 0000000   0.0000  72.0000  4.55247085    19
CTC1_L_00621007-02
1 10061U 23220SZ  26075.70039352  .00000000  00000+0  00000-0 0  9995
2 10061  65.0000 180.0000 0000000   0.0000 108.0000  4.55247085    10
